NORAD_CAT_ID,OBJECT_NAME,OBJECT_TYPE,EPOCH,MEAN_MOTION,ECCENTRICITY,INCLINATION,RA_OF_ASC_NODE,ARG_OF_PERICENTER,MEAN_ANOMALY,BSTAR,MEAN_MOTION_DOT,MEAN_MOTION_DDOT,TLE_LINE0,TLE_LINE1,TLE_LINE2,SEMIMAJOR_AXIS,PERIOD,APOGEE,PERIGEE,DECAYED
52848.0,STARLINK-4202,PAYLOAD,2023-05-26 18:06:10,15.08842701,0.0001107,53.2173,283.8061,89.3657,270.7462,7.4662e-05,9.01e-06,0.0,0 STARLINK-4202,1 52848U 22062U   23146.75428453  .00000901  00000-0  74662-4 0  9992,2 52848  53.2173 283.8061 0001107  89.3657 270.7462 15.08842701 52602,6917.872,95.437,540.503,538.971,0.0
52848.0,STARLINK-4202,PAYLOAD,2023-05-26 19:41:33,15.08842674,0.0001103,53.2173,283.5088,89.4429,270.669,6.9926e-05,8.25e-06,0.0,0 STARLINK-4202,1 52848U 22062U   23146.82052433  .00000825  00000-0  69926-4 0  9993,2 52848  53.2173 283.5088 0001103  89.4429 270.6690 15.08842674 52120,6917.872,95.437,540.5,538.974,0.0
52848.0,STARLINK-4202,PAYLOAD,2023-05-27 02:03:06,15.08837241,0.0001175,53.2174,282.3186,85.1987,274.9139,-2.5663e-05,-6.96e-06,0.0,0 STARLINK-4202,1 52848U 22062U   23147.08548750 -.00000696  00000-0 -25663-4 0  9992,2 52848  53.2174 282.3186 0001175  85.1987 274.9139 15.08837241 52655,6917.889,95.438,540.567,538.941,0.0
52848.0,STARLINK-4202,PAYLOAD,2023-05-27 16:21:34,15.08838199,0.0001058,53.2183,279.6421,81.2076,278.9036,7.7203e-05,9.41e-06,0.0,0 STARLINK-4202,1 52848U 22062U   23147.68165134  .00000941  00000-0  77203-4 0  9997,2 52848  53.2183 279.6421 0001058  81.2076 278.9036 15.08838199 52251,6917.886,95.438,540.483,539.019,0.0
52848.0,STARLINK-4202,PAYLOAD,2023-05-28 01:53:53,15.08843815,0.0001074,53.2182,277.8584,86.9356,273.1759,5.3591e-05,5.65e-06,0.0,0 STARLINK-4202,1 52848U 22062U   23148.07908782  .00000565  00000-0  53591-4 0  9991,2 52848  53.2182 277.8584 0001074  86.9356 273.1759 15.08843815 52318,6917.869,95.437,540.477,538.991,0.0
52848.0,STARLINK-4202,PAYLOAD,2023-05-28 08:15:26,15.08832463,0.0001088,53.2176,276.6692,102.233,257.8784,0.00025095,3.707e-05,0.0,0 STARLINK-4202,1 52848U 22062U   23148.34405332  .00003707  00000-0  25095-3 0  9992,2 52848  53.2176 276.6692 0001088 102.2330 257.8784 15.08832463 52849,6917.903,95.438,540.521,539.016,0.0
52848.0,STARLINK-4202,PAYLOAD,2023-05-28 16:12:20,15.08852156,9.26e-05,53.2169,275.183,100.3229,259.7867,0.00015552,2.189e-05,0.0,0 STARLINK-4202,1 52848U 22062U   23148.67524005  .00002189  00000-0  15552-3 0  9997,2 52848  53.2169 275.1830 0000926 100.3229 259.7867 15.08852156 52894,6917.843,95.437,540.349,539.068,0.0
52848.0,STARLINK-4202,PAYLOAD,2023-05-29 01:44:39,15.08845275,0.0001052,53.216,273.401,71.3626,288.7481,8.5364e-05,1.071e-05,0.0,0 STARLINK-4202,1 52848U 22062U   23149.07268508  .00001071  00000-0  85364-4 0  9993,2 52848  53.2160 273.4010 0001052  71.3626 288.7481 15.08845275 52950,6917.864,95.437,540.457,539.002,0.0
52848.0,STARLINK-4202,PAYLOAD,2023-05-29 14:27:45,15.08841327,8.58e-05,53.2166,271.0211,84.4734,275.6356,6.6427e-05,7.7e-06,0.0,0 STARLINK-4202,1 52848U 22062U   23149.60260822  .00000770  00000-0  66427-4 0  9997,2 52848  53.2166 271.0211 0000858  84.4734 275.6356 15.08841327 52546,6917.876,95.437,540.335,539.148,0.0
52848.0,STARLINK-4202,PAYLOAD,2023-05-29 17:38:31,15.08844208,8.75e-05,53.2168,270.4252,90.5611,269.5482,8.5762e-05,1.078e-05,0.0,0 STARLINK-4202,1 52848U 22062U   23149.73508535  .00001078  00000-0  85762-4 0  9992,2 52848  53.2168 270.4252 0000875  90.5611 269.5482 15.08844208 52562,6917.868,95.437,540.338,539.127,0.0
52848.0,STARLINK-4202,PAYLOAD,2023-05-30 01:35:27,15.08839584,8.98e-05,53.2162,268.9387,85.1398,274.9697,4.1768e-05,3.77e-06,0.0,0 STARLINK-4202,1 52848U 22062U   23150.06628921  .00000377  00000-0  41768-4 0  9991,2 52848  53.2162 268.9387 0000898  85.1398 274.9697 15.08839584 53104,6917.882,95.438,540.368,539.125,0.0
52848.0,STARLINK-4202,PAYLOAD,2023-05-30 11:07:46,15.08839556,9.22e-05,53.2161,267.1547,83.5925,276.5172,1.0466e-05,-1.21e-06,0.0,0 STARLINK-4202,1 52848U 22062U   23150.46373008 -.00000121  00000-0  10466-4 0  9997,2 52848  53.2161 267.1547 0000922  83.5925 276.5172 15.08839556 52674,6917.882,95.438,540.385,539.109,0.0
52848.0,STARLINK-4202,PAYLOAD,2023-05-30 17:29:18,15.08846476,8.88e-05,53.2165,265.9638,102.0214,258.0878,1.6275e-05,-2.9e-07,0.0,0 STARLINK-4202,1 52848U 22062U   23150.72868442 -.00000029  00000-0  16275-4 0  9998,2 52848  53.2165 265.9638 0000888 102.0214 258.0878 15.08846476 52716,6917.861,95.437,540.34,539.111,0.0
52848.0,STARLINK-4202,PAYLOAD,2023-05-31 10:58:33,15.08839975,0.0001006,53.2161,262.6916,95.9285,264.1822,8.4683e-05,1.06e-05,0.0,0 STARLINK-4202,1 52848U 22062U   23151.45732758  .00001060  00000-0  84683-4 0  9992,2 52848  53.2161 262.6916 0001006  95.9285 264.1822 15.08839975 53316,6917.88,95.438,540.441,539.05,0.0
52848.0,STARLINK-4202,PAYLOAD,2023-05-31 12:33:56,15.08841406,9.38e-05,53.2167,262.3951,92.0839,268.0261,0.00012012,1.625e-05,0.0,0 STARLINK-4202,1 52848U 22062U   23151.52356596  .00001625  00000-0  12012-3 0  9995,2 52848  53.2167 262.3951 0000938  92.0839 268.0261 15.08841406 52832,6917.876,95.437,540.39,539.092,0.0
52848.0,STARLINK-4202,PAYLOAD,2023-06-01 23:32:25,15.08839773,8.68e-05,53.2167,255.8545,92.0744,268.0347,3.7492e-05,3.09e-06,0.0,0 STARLINK-4202,1 52848U 22062U   23152.98085202  .00000309  00000-0  37492-4 0  9997,2 52848  53.2167 255.8545 0000868  92.0744 268.0347 15.08839773 53543,6917.881,95.438,540.347,539.146,0.0
52848.0,STARLINK-4202,PAYLOAD,2023-06-02 12:15:30,15.08839288,8.8e-05,53.2165,253.4757,97.49,262.6192,4.9662e-05,5.03e-06,0.0,0 STARLINK-4202,1 52848U 22062U   23153.51077418  .00000503  00000-0  49662-4 0  9995,2 52848  53.2165 253.4757 0000880  97.4900 262.6192 15.08839288 53131,6917.883,95.438,540.356,539.139,0.0
52848.0,STARLINK-4202,PAYLOAD,2023-06-03 10:30:55,15.088365,8.9e-05,53.2158,249.3149,108.5806,251.5283,6.2189e-05,7.02e-06,0.0,0 STARLINK-4202,1 52848U 22062U   23154.43813776  .00000702  00000-0  62189-4 0  9992,2 52848  53.2158 249.3149 0000890 108.5806 251.5283 15.08836500 53763,6917.891,95.438,540.372,539.14,0.0
52848.0,STARLINK-4202,PAYLOAD,2023-06-03 13:41:41,15.08839103,8.96e-05,53.2158,248.7201,105.4981,254.6111,8.0394e-05,9.92e-06,0.0,0 STARLINK-4202,1 52848U 22062U   23154.57061562  .00000992  00000-0  80394-4 0  9994,2 52848  53.2158 248.7201 0000896 105.4981 254.6111 15.08839103 53295,6917.883,95.438,540.368,539.128,0.0
52848.0,STARLINK-4202,PAYLOAD,2023-06-04 13:32:28,15.0883983,8.93e-05,53.2161,244.259,92.8325,267.2769,4.7951e-05,4.76e-06,0.0,0 STARLINK-4202,1 52848U 22062U   23155.56421847  .00000476  00000-0  47951-4 0  9999,2 52848  53.2161 244.2590 0000893  92.8325 267.2769 15.08839830 53442,6917.881,95.438,540.364,539.128,0.0
52848.0,STARLINK-4202,PAYLOAD,2023-06-05 11:47:51,15.08847436,8.48e-05,53.2161,240.0949,84.9531,275.1558,0.0001155,1.551e-05,0.0,0 STARLINK-4202,1 52848U 22062U   23156.49157177  .00001551  00000-0  11550-3 0  9994,2 52848  53.2161 240.0949 0000848  84.9531 275.1558 15.08847436 53585,6917.858,95.437,540.309,539.136,0.0
52848.0,STARLINK-4202,PAYLOAD,2023-06-06 08:27:53,15.0883783,8.1e-05,53.2157,236.2292,82.6676,277.4408,6.2891e-05,7.13e-06,0.0,0 STARLINK-4202,1 52848U 22062U   23157.35269870  .00000713  00000-0  62891-4 0  9998,2 52848  53.2157 236.2292 0000810  82.6676 277.4408 15.08837830 54208,6917.887,95.438,540.312,539.192,0.0
52848.0,STARLINK-4202,PAYLOAD,2023-06-06 11:38:39,15.08842449,8.47e-05,53.2156,235.6349,78.1342,281.9745,5.2958e-05,5.55e-06,0.0,0 STARLINK-4202,1 52848U 22062U   23157.48517630  .00000555  00000-0  52958-4 0  9999,2 52848  53.2156 235.6349 0000847  78.1342 281.9745 15.08842449 53736,6917.873,95.437,540.324,539.152,0.0
52848.0,STARLINK-4202,PAYLOAD,2023-06-06 14:49:25,15.0884512,8.31e-05,53.2157,235.0401,77.6419,282.4667,7.2173e-05,8.61e-06,0.0,0 STARLINK-4202,1 52848U 22062U   23157.61765364  .00000861  00000-0  72173-4 0  9994,2 52848  53.2157 235.0401 0000831  77.6419 282.4667 15.08845120 54247,6917.865,95.437,540.305,539.155,0.0
52848.0,STARLINK-4202,PAYLOAD,2023-06-07 08:18:40,15.08839787,9.2e-05,53.2153,231.7692,75.1885,284.9209,-4.4209e-06,-3.58e-06,0.0,0 STARLINK-4202,1 52848U 22062U   23158.34629869 -.00000358  00000-0 -44209-5 0  9997,2 52848  53.2153 231.7692 0000920  75.1885 284.9209 15.08839787 54350,6917.881,95.438,540.382,539.11,0.0
52848.0,STARLINK-4202,PAYLOAD,2023-06-07 14:40:12,15.0884693,0.0001004,53.2153,230.579,83.7775,276.3332,1.8073e-05,0.0,0.0,0 STARLINK-4202,1 52848U 22062U   23158.61125304 -.00000000  00000-0  18073-4 0  9994,2 52848  53.2153 230.5790 0001004  83.7775 276.3332 15.08846930 54397,6917.859,95.437,540.419,539.03,0.0
52848.0,STARLINK-4202,PAYLOAD,2023-06-08 09:44:50,15.08837832,9.95e-05,53.2161,227.0114,83.5114,276.5991,4.6159e-05,4.47e-06,0.0,0 STARLINK-4202,1 52848U 22062U   23159.40613882  .00000447  00000-0  46159-4 0  9995,2 52848  53.2161 227.0114 0000995  83.5114 276.5991 15.08837832 54518,6917.887,95.438,540.44,539.064,0.0
52848.0,STARLINK-4202,PAYLOAD,2023-06-08 11:20:13,15.0883928,0.0001001,53.216,226.714,83.3758,276.7348,5.8095e-05,6.37e-06,0.0,0 STARLINK-4202,1 52848U 22062U   23159.47237765  .00000637  00000-0  58095-4 0  9997,2 52848  53.2160 226.7140 0001001  83.3758 276.7348 15.08839280 54037,6917.883,95.438,540.44,539.055,0.0
52848.0,STARLINK-4202,PAYLOAD,2023-06-09 11:10:59,15.08892,5.81e-05,53.2148,222.2552,78.6057,281.5,-0.00068242,-0.00011147,0.0,0 STARLINK-4202,1 52848U 22062U   23160.46596847 -.00011147  00000-0 -68242-3 0  9991,2 52848  53.2148 222.2552 0000581  78.6057 281.5000 15.08892000 54670,6917.721,95.434,539.988,539.185,0.0
52848.0,STARLINK-4202,PAYLOAD,2023-06-09 20:43:19,15.08833835,9.44e-05,53.2151,220.4709,93.6185,266.4916,3.8459e-05,3.24e-06,0.0,0 STARLINK-4202,1 52848U 22062U   23160.86342268  .00000324  00000-0  38459-4 0  9992,2 52848  53.2151 220.4709 0000944  93.6185 266.4916 15.08833835 54242,6917.899,95.438,540.417,539.111,0.0
